Name,Address,City,State
Cat 'n Fiddle,540 16 Ave NW,Calgary,AB
The Rose and Crown,628 E Adams St,Phoenix,AZ
The Butcher & Bullock Pub,911 West Pender Street,Vancouver,BC
Docksider Pub and Restaurant,Front Street,Hamilton,BERM
Se√±or Grubbys,377 Carlsbad Village Drive,Carlsbad,CA
Gallaghers Pub,2751 Broadway,Long Beach,CA
Joxer Daly's,11168 W Washington Blvd,Culver City,CA
Lucky Baldwin's,17 S Raymond Ave,Los Angeles,CA
The Auld Dubliner,2497 Park Ave,Orange County,CA
DeVeres Irish Pub,1521 L St,Sacramento,CA
OFlahertys Irish Pub,25 North San Pedro St,San Jose,CA
The Princess Pub,1665 India Street,San Diego,CA
Kezar Pub,770 Stanyan St,San Francisco,CA
Abbey Tavern,5151 E Colfax Ave,Denver,CO
Christy's Public House,261 Orange St,New Haven,CT
Queen Vic British Pub,1206 H St NE,Washington DC,DC
Catherine Rooney's,1616 Delaware Ave,Wilmington,DE
Brogues DownUnder,621 Lake Ave,Lake Worth,FL
Fado Irish Pub,900 S Miami Ave,Miami,FL
Fox and Hounds,3514 W Vine St,Oakland Park,FL
Harp and Celt Irish Pub,25 S Magnolia Ave,Orlando,FL
Playwright Irish Pub,501 Silks Run,South Beach,FL
Pokey's,100 E Madison St,Tampa Bay,FL
London Heights,7701 N Nebraska Ave,Tampa Bay,FL
Meehan's Public House,200 Peachtree St NE,Atlanta,GA
AJ Hudson's Public House,3801 N Ashland Ave,Chicago,IL
Union Jack Pub,924 Broad Ripple Ave,Indianapolis,IN
Molly Malone's Highlands,933 Baxter Avenue,Louisville,KY
Finn McCools,3701 Banks St.,New Orleans,LA
The Phoenix Landing,512 Massachusetts Ave,Cambridge/Boston,MA
The Rising,1172 Cambridge St,Cambridge,MA
The Field,20 Prospect St,Cambridge,MA
Whistle Stop Bar and Grill,85 Main Street,Oxford,MA
Funky Murphy's,305 Shrewbury Street,Worcester,MA
Slainte Irish Pub and Restaurant,1700 Thames Street,Baltimore,MD
Smaltimore,2522 Fait Ave,Baltimore,MD
